1 53719U 22107V   23278.29322223  .00009414  00000+0  60851-3 0  9994
2 53719  53.2161 242.9309 0001475  92.7161 267.4000 15.08855784 60553
STARLINK-4642           
1 53720U 22107W   23278.37511565  .00008653  00000+0  56088-3 0  9995
2 53720  53.2149 272.6953 0001614 101.6514 258.4659 15.08855650 60151
STARLINK-4707           
1 53721U 22107X   23278.05129016  .00002002  00000+0  14382-3 0  9990
2 53721  53.2150 274.2276 0001591  92.6455 267.4719 15.08843201 60108
STARLINK-4700           
1 53722U 22107Y   23278.38985641  .00003720  00000+0  25164-3 0  9999
2 53722  53.2159 272.7850 0001737  84.2717 275.8473 15.08851501 60156
STARLINK-4705           
1 53723U 22107Z   23278.43030439  .00001995  00000+0  14338-3 0  9995
2 53723  53.2172 272.3351 0001966  92.4207 267.7010 15.08844705 60169
STARLINK-4663           
1 53724U 22107AA  23277.71640228  .00001707  00000+0  12531-3 0  9993
2 53724  53.2160 275.6929 0001786  91.0711 269.0486 15.08843493 60513
STARLINK-4697           
1 53726U 22107AC  23277.72377638  .00002657  00000+0  18494-3 0  9997
2 53726  53.2164 275.7360 0001609  95.1101 265.0075 15.08844996 60510
STARLINK-4701           
1 53727U 22107AD  23278.13226163 -.00001426  00000+0 -71507-4 0  9990
2 53727  53.2167 274.0216 0001891 102.0605 258.0599 15.08840969 60111
STARLINK-4640           
1 53728U 22107AE  23277.73114395  .00003021  00000+0  20777-3 0  9992
2 53728  53.2165 275.7843 0001701  87.5918 272.5269 15.08846235 60654
STARLINK-4651           
1 53729U 22107AF  23277.41468352  .00002103  00000+0  15018-3 0  9995
2 53729  53.2146 277.3637 0001528  94.2824 265.8343 15.08840429 60636
STARLINK-4641           
1 53730U 22107AG  23278.13595332  .00002170  00000+0  15437-3 0  9995
2 53730  53.2164 274.0464 0001796  99.6224 260.4971 15.08845251 60119
STARLINK-4636           
1 53731U 22107AH  23278.41196589  .00002848  00000+0  19691-3 0  9996
2 53731  53.2148 272.9262 0001555  89.8383 270.2788 15.08847123 60154
STARLINK-4661           
1 53732U 22107AJ  23278.00813425 -.00002393  00000+0 -13233-3 0  9990
2 53732  53.2158 274.6707 0002312 101.5872 258.5380 15.08819002 60091
STARLINK-4574           
1 53733U 22107AK  23278.41933147  .00000717  00000+0  63105-4 0  9990
2 53733  53.2177 272.9749 0001739  98.9251 261.1938 15.08849576 60157
STARLINK-4616           
1 53734U 22107AL  23277.41099621  .00001432  00000+0  10803-3 0  9991
2 53734  53.2174 277.3424 0001538  92.2930 267.8239 15.08843351 60637
STARLINK-4618           
1 53735U 22107AM  23277.71916443  .00001519  00000+0  11351-3 0  9990
2 53735  53.2152 285.6982 0001598  95.0933 265.0242 15.08842077 60543
STARLINK-4652           
1 53736U 22107AN  23278.01821283  .00002545  00000+0  17788-3 0  9992
2 53736  53.2159 274.7317 0002272  99.4539 260.6710 15.08855986 60096
STARLINK-4646           
1 53737U 22107AP  23278.05405081  .00000203  00000+0  30864-4 0  9991
2 53737  53.2154 284.2359 0001607  98.2736 261.8438 15.08838982 59962
STARLINK-4662           
1 53738U 22107AQ  23277.71547970  .00001445  00000+0  10886-3 0  9998
2 53738  53.2167 285.6740 0001792  94.0733 266.0464 15.08840966 60549
STARLINK-4607           
1 53740U 22107AS  23278.05773624  .00000940  00000+0  77124-4 0  9994
2 53740  53.2160 284.2587 0001887  94.0375 266.0833 15.08841025 59967
STARLINK-4614           
1 53741U 22107AT  23277.70493796  .00000446  00000+0  46127-4 0  9995
2 53741  53.2153 270.7197 0001391  87.9414 272.1737 15.08837552 60909
STARLINK-4637           
1 53742U 22107AU  23278.39261685 -.00000859  00000+0 -35898-4 0  9995
2 53742  53.2168 282.7937 0001808  91.2827 268.8373 15.08837534 60010
STARLINK-4645           
1 53743U 22107AV  23278.00991987  .00003133  00000+0  21484-3 0  9990
2 53743  53.2174 284.6664 0001650  98.7419 261.3760 15.08841119 59953
STARLINK-4670           
1 53744U 22107AW  23278.25001157 -.00064186  00000+0 -40490-2 0  9993
2 53744  53.2160 283.1268 0001389  89.1392  16.1405 15.08858802 59999
STARLINK-4656           
1 53745U 22107AX  23278.34480105  .00000864  00000+0  72326-4 0  9994
2 53745  53.2158 283.2042 0001713  90.4025 269.7163 15.08852544 60005
STARLINK-4589           
1 53746U 22107AY  23278.33743331  .00001858  00000+0  13479-3 0  9994
2 53746  53.2163 283.1571 0001681 103.3536 256.7644 15.08846773 60000
STARLINK-4669           
1 53748U 22107BA  23277.75232979  .00002508  00000+0  17558-3 0  9997
2 53748  53.2153 285.9027 0001759  89.4279 270.6914 15.08843985 60693
STARLINK-4680           
1 53749U 22107BB  23277.75601193  .00001639  00000+0  12105-3 0  9993
2 53749  53.2149 285.8892 0001764  90.3253 269.7941 15.08840953 60698
STARLINK-4612           
1 53750U 22107BC  23278.02465571  .00004168  00000+0  27983-3 0  9994
2 53750  53.2157 284.7608 0001810  88.8367 271.2833 15.08841664 59957
SHERPA-LTC2             
1 53754U 22107BG  23277.70290503  .00006614  00000+0  39701-3 0  9992
2 53754  53.2411  25.2498 0460705  21.6787 340.3005 14.52329749 58289
STARLINK-4718           
1 53773U 22111A   23277.77989567 -.00000517  00000+0 -14379-4 0  9993
2 53773  53.2169 305.5335 0002181  81.4998 278.6241 15.08837373 59951
STARLINK-4719           
1 53774U 22111B   23278.04117114  .00001300  00000+0  99765-4 0  9997
2 53774  53.2167 304.3236 0001569 106.4471 253.6694 15.08841581 58893
STARLINK-4722           
1 53775U 22111C   23278.07157847  .00003517  00000+0  23896-3 0  9991
2 53775  53.2153 294.5394 0001813  86.3366 273.7833 15.08837295 59037
STARLINK-4708           
1 53776U 22111D   23278.06653967 -.00000093  00000+0  12271-4 0  9998
2 53776  53.2161 299.4925 0001555  90.6192 269.4978 15.08839652 58961
STARLINK-4664           
1 53777U 22111E   23278.06420943  .00003280  00000+0  22407-3 0  9996
2 53777  53.2147 294.4911 0001665  87.8110 272.3073 15.08842623 59036
STARLINK-4709           
1 53778U 22111F   23277.76009327  .00002327  00000+0  16425-3 0  9996
2 53778  53.2164 300.4307 0000931 127.8788 232.2288 15.08840454 59734
STARLINK-4706           
1 53779U 22111G   23278.06052483  .00000166  00000+0  28513-4 0  9993
2 53779  53.2146 294.4700 0001779  89.6615 270.4581 15.08838135 59035
STARLINK-4678           
1 53780U 22111H   23278.33285191  .00016857  00000+0  10744-2 0  9998
2 53780  53.2167 293.3251 0001783  89.1323 270.9874 15.08849911 59073
STARLINK-4462           
1 53781U 22111J   23278.31443057  .00005852  00000+0  38546-3 0  9998
2 53781  53.2163 293.2152 0001968  84.1140 276.0076 15.08841946 59077
STARLINK-4679           
1 53782U 22111K   23278.45427558  .00014750  00000+0  94237-3 0  9998
2 53782  53.2159 292.6617 0001763  89.4095 270.7099 15.08859749 59090
STARLINK-4536           
1 53783U 22111L   23278.30706119  .00012134  00000+0  77911-3 0  9990
2 53783  53.2160 293.1661 0002020  89.1593 270.9631 15.08843479 59070
STARLINK-4687           
1 53784U 22111M   23278.05315420 -.00000120  00000+0  10563-4 0  9998
2 53784  53.2149 294.4264 0001680  88.4698 271.6487 15.08842266 59036
STARLINK-4631           
1 53786U 22111P   23278.01451578  .00001301  00000+0  99813-4 0  9997
2 53786  53.2166 284.3217 0001462  89.5949 270.5211 15.08838020 59173
STARLINK-4743           
1 53787U 22111Q   23277.76977252 -.00000330  00000+0 -26037-5 0  9993
2 53787  53.2156 295.4957 0002260  85.7269 274.3982 15.08835811 59809
STARLINK-4666           
1 53789U 22111S   23278.42111348  .00003665  00000+0  24822-3 0  9995
2 53789  53.2173 292.4565 0001983  83.4703 276.6515 15.08843391 59091
STARLINK-4734           
1 53790U 22111T   23277.77345616  .00000079  00000+0  23040-4 0  9999
2 53790  53.2169 295.5192 0001791  87.5706 272.5491 15.08836744 59804
STARLINK-4739           
1 53792U 22111V   23277.76608327  .00001545  00000+0  11516-3 0  9994
2 53792  53.2160 295.4744 0001738  86.4650 273.6541 15.08843014 59790
STARLINK-4728           
1 53793U 22111W   23278.35951785  .00001753  00000+0  12825-3 0  9995
2 53793  53.2169 292.7828 0002053  91.5429 268.5798 15.08839376 59080
STARLINK-4730           
1 53794U 22111X   23278.43312726  .00023147  00000+0  14672-2 0  9993
2 53794  53.2163 292.5281 0001730  91.3377 268.7813 15.08850811 59095
STARLINK-4742           
1 53795U 22111Y   23278.41742738  .00000576  00000+0  54243-4 0  9993
2 53795  53.2161 292.4342 0001561  91.1137 269.0034 15.08848736 59097
STARLINK-4721           
1 53796U 22111Z   23278.22422927  .00000268  00000+0  34933-4 0  9990
2 53796  53.2159 273.2859 0001369  86.9247 273.1902 15.08832944 59426
STARLINK-4723           
1 53797U 22111AA  23278.07517607  .00010071  00000+0  64983-3 0  9994
2 53797  53.2164 293.8501 0001974  99.0799 261.0416 15.08846393 59041
STARLINK-4712           
1 53798U 22111AB  23278.34383329 -.00005106  00000+0 -30314-3 0  9993
2 53798  53.2158 292.6863 0001796  92.6520 267.4678 15.08815960 59064
STARLINK-4710           
1 53799U 22111AC  23278.45247150 -.00000053  00000+0  14752-4 0  9991
2 53799  53.2170 282.6647 0001668  93.2188 266.8995 15.08848171 59215
STARLINK-4720           
1 53800U 22111AD  23277.31437649  .00001455  00000+0  10953-3 0  9996
2 53800  53.2166 287.6473 0002318  99.0575 261.0680 15.08839009 59850
STARLINK-4715           
1 53801U 22111AE  23278.25001157 -.00039890  00000+0 -26157-2 0  9990
2 53801  53.2162 283.3438 0001386  82.1930  16.4521 15.07216873 59193
STARLINK-4726           
1 53802U 22111AF  23278.43308480  .00001695  00000+0  12451-3 0  9993
2 53802  53.2163 282.5479 0001571  94.5691 265.5481 15.08850438 59215
STARLINK-4727           
1 53803U 22111AG  23277.71873253  .00003490  00000+0  23721-3 0  9996
2 53803  53.2153 270.9323 0001239  91.1042 269.0092 15.08845860 60120
STARLINK-4729           
1 53804U 22111AH  23278.29281533 -.00000112  00000+0  11088-4 0  9998
2 53804  53.2174 278.0985 0001615  91.4944 268.6233 15.08842532 59267
STARLINK-4763           
1 53805U 22111AJ  23278.38945621  .00002901  00000+0  20022-3 0  9998
